DTUSAT                  
1 27842U 03031C   08107.60401120  .00000019  00000-0  29091-4 0  2651
2 27842  98.7124 117.7114 0008479 275.8549  84.1652 14.20926001248764
CUTE-1 (CO-55)          
1 27844U 03031E   08107.59608466  .00000050  00000-0  43780-4 0  2839
2 27844  98.7177 116.7164 0009189 297.6046  62.4197 14.20572339248697
QUAKESAT                
1 27845U 03031F   08107.64408857  .00000056  00000-0  46581-4 0  2634
2 27845  98.7225 116.1400 0008600 316.3723  43.6777 14.20186823248624
AAU CUBESAT             
1 27846U 03031G   08107.60380930  .00000005  00000-0  22738-4 0  2094
2 27846  98.7133 117.7072 0008708 275.2920  84.7249 14.20926477248768
CANX-1                  
1 27847U 03031H   08107.60778641  .00000033  00000-0  35732-4 0  2218
2 27847  98.7126 117.7078 0008702 276.5297  83.4900 14.20914261248715
CUBESAT XI-IV (CO-57)   
1 27848U 03031J   08107.02235155  .00000029  00000-0  34022-4 0  2343
2 27848  98.7175 115.2583 0009246 303.3189  56.7100 14.20382532248587
UWE-1                   
1 28892U 05043C   08106.97632930  .00000057  00000-0  21673-4 0   238
2 28892  98.1029   2.0830 0016219 243.1572 116.7960 14.59615893131529
CUBESAT XI-V (CO-58)    
1 28895U 05043F   08108.17987257  .00000034  00000-0  16818-4 0  9981
2 28895  98.1052   3.5915 0016881 239.0511 120.9014 14.59657267131584
NCUBE-2                 
1 28897U 05043H   08107.67170891  .00000160  00000-0  43054-4 0  5286
2 28897  98.1022   3.0295 0016216 243.5002 116.4542 14.59827037123790
CUTE-1.7 (CO-56)        
1 28941U 06005C   08108.21399218  .00017266  26379-5  14200-3 0  9867
2 28941  98.1016 210.7516 0176411 261.8741  96.2538 15.53542689120567
HIT-SAT (HO-59)         
1 29484U 06041F   08108.02664385  .00124678  81256-5  33319-3 0  3091
2 29484  98.2428 215.5616 0093931 228.3557 130.9767 15.87223436 88768
GENESAT-1               
1 29655U 06058C   08107.90293775  .00007343  00000-0  99335-4 0  3909
2 29655  40.0297 317.3695 0005703 318.3069  41.7313 15.57803683 75827
CSTB 1                  
1 31122U 07012F   08108.16898376  .00000552  00000-0  13192-3 0  3157
2 31122  98.0466 176.0136 0086478 157.8310 202.6667 14.55112713 53205
MAST                    
1 31126U 07012K   08107.21300728 -.00000009  00000-0  86480-5 0  3032
2 31126  98.0413 174.1110 0095267 163.4832 196.9534 14.53414781 53015
LIBERTAD-1              
1 31128U 07012M   08108.20862557 -.00000047  00000-0  00000+0 0  3082
2 31128  98.0419 174.2124 0103704 162.8513 197.6243 14.51934625 53088
POLYSAT CP3             
1 31129U 07012N   08108.11761373  .00000339  00000-0  89029-4 0  8965
2 31129  98.0436 174.1624 0103248 163.1094 197.3573 14.52026143 53051
CAPE1                   
1 31130U 07012P   08107.72170261  .00000148  00000-0  45076-4 0  2846
2 31130  98.0430 173.7519 0103427 164.3694 196.0722 14.51951759 52806
POLYSAT CP4             
1 31132U 07012Q   08107.75448923  .00000150  00000-0  43421-4 0  2917
2 31132  98.0452 175.6044 0086382 159.0428 201.4343 14.55107292 53015
